
SITRO-AIS 7 (FARTUSHNIY)
1 57194U 23091AE  25044.15790551  .00011615  00000+0  60360-3 0  9990
2 57194  97.5772 101.0680 0015270  19.3498 340.8311 15.16144726 89914
SITRO-AIS 10 (BURDAEV)  
1 57199U 23091AK  25044.22754594  .00015353  00000+0  71538-3 0  9992
2 57199  97.5782 103.2314 0010279   6.1402 353.9957 15.19943125 90052
SITRO-AIS 9 (SHCHUKIN)  
1 57201U 23091AM  25044.16805397  .00015264  00000+0  71360-3 0  9991
2 57201  97.5777 103.1189 0010243   6.3268 353.8094 15.19828642 90048
SITRO-AIS 12 (SMIRENNIY)
1 57204U 23091AQ  25044.16548228  .00015159  00000+0  70477-3 0  9992
2 57204  97.5786 103.3478 0010026   0.4575 359.6667 15.20024941 90052
SITRO-AIS 11 (SHEFFER)  
1 57208U 23091AU  25044.13172022  .00014443  00000+0  66872-3 0  9997
2 57208  97.5781 103.3749 0009848   0.9902 359.1351 15.20180315 90054
VERONIKA                
1 58261U 23174F   25044.13943940  .00057298  00000+0  12396-2 0  9990
2 58261  97.4292 125.7833 0007380 108.5703 251.6347 15.44257862 70579
ROBUSTA-1E (ENSO)       
1 58470U 23185J   25044.21471421  .00040705  00000+0  96618-3 0  9998
2 58470  97.3911 116.7660 0009122 139.3768 220.8161 15.41551091 67021
SITRO-AIS 29            
1 59052U 24039B   25044.17983491  .00099946  00000+0  13052-2 0  9995
2 59052  97.4132  14.9318 0014284  77.9904 282.2952 15.58213438 53682
SITRO-AIS 30            
1 59053U 24039C   25044.17217330  .00092658  00000+0  12594-2 0  9991
2 59053  97.4123  14.7789 0014434  78.1499 282.1374 15.57164697 53668
SITRO-AIS 31            
1 59054U 24039D   25044.17878110  .00098181  00000+0  12970-2 0  9996
2 59054  97.4141  14.9311 0014245  80.0167 280.2695 15.57912650 53694
SITRO-AIS 33            
1 59055U 24039E   25044.21523169  .00101478  00000+0  13317-2 0  9993
2 59055  97.4131  15.0432 0013904  78.9811 281.3007 15.58084044 53690
SITRO-AIS 35            
1 59056U 24039F   25044.20466525  .00103412  00000+0  13474-2 0  9999
2 59056  97.4141  15.0565 0014056  81.4487 278.8361 15.58265847 53692
SITRO-AIS 32            
1 59057U 24039G   25044.19209372  .00096755  00000+0  12987-2 0  9992
2 59057  97.4142  14.9294 0014170  79.9800 280.3053 15.57491521 53683
SITRO-AIS 34            
1 59058U 24039H   25044.21571057  .00096929  00000+0  12744-2 0  9992
2 59058  97.4135  15.0457 0013842  79.3445 280.9368 15.58050716 53697
SITRO-AIS 36            
1 59059U 24039J   25044.19316695  .00096776  00000+0  12759-2 0  9991
2 59059  97.4121  15.0638 0013654  80.1377 280.1420 15.57980774 53695
SITRO-AIS 49            
1 59060U 24039K   25044.16417162  .00094880  00000+0  12745-2 0  9990
2 59060  97.4129  14.9584 0013948  79.7376 280.5452 15.57481689 53681
SITRO-AIS 50            
1 59061U 24039L   25044.20448970  .00105051  00000+0  13393-2 0  9990
2 59061  97.4117  15.1981 0013436  79.1770 281.0998 15.58849726 53702
SITRO-AIS 51            
1 59062U 24039M   25044.19387543  .00109975  00000+0  13848-2 0  9991
2 59062  97.4123  15.2110 0013479  79.1891 281.0882 15.59161128 53702
SITRO-AIS 52            
1 59063U 24039N   25044.17220413  .00103557  00000+0  12999-2 0  9998
2 59063  97.4130  15.2523 0013613  81.3536 278.9262 15.59264203 53705
SITRO-AIS 25            
1 59066U 24039R   25044.22067038  .00007202  00000+0  63347-3 0  9993
2 59066  95.3816 260.8979 0158253 230.6026 128.1095 14.87479716 51886
SITRO-AIS 26            
1 59067U 24039S   25044.16790911  .00006179  00000+0  54573-3 0  9993
2 59067  95.3816 260.8387 0158454 230.9414 127.7621 14.87336095 51878
SITRO-AIS 27            
1 59068U 24039T   25044.18760469  .00006639  00000+0  58246-3 0  9993
2 59068  95.3815 260.9358 0157783 230.4184 128.3016 14.87639619 51884
SITRO-AIS 28            
1 59071U 24039U   25044.17785338  .00006105  00000+0  53550-3 0  9999
2 59071  95.3818 260.9487 0157649 230.3836 128.3383 14.87680496 51884
GRBBETA                 
1 60237U 24128C   25043.68891730  .00005726  00000+0  45661-3 0  9995
2 60237  61.9931 126.6206 0040164  30.1879 330.1513 15.00822537 32649
OOV-CUBE (TUBSAT-30)    
1 60240U 24128F   25043.71822982  .00003795  00000+0  32292-3 0  9996
2 60240  61.9971 127.9359 0038652  26.4358 333.8692 14.99065439 32633
ROBUSTA-3A (MEDITERRAN*)
1 60243U 24128J   25043.71468907  .00008733  00000+0  67226-3 0  9994
2 60243  61.9901 126.6660 0038673  22.4414 337.8357 15.01718509 32653
LASARSAT                
1 62391U 24247Q   25043.46495826  .00017430  00000+0  79867-3 0  9992
2 62391  44.9912  75.3673 0003742  35.3950 324.7178 15.20296757  8200
CROCUBE                 
1 62394U 24247T   25043.79534290  .00019526  00000+0  89286-3 0  9994
2 62394  44.9913  73.6054 0004197  43.3103 316.8106 15.20299344  8255
